[{"OBJECT_NAME":"HULIANWANG DIGUI-14","OBJECT_ID":"2025-030D","EPOCH":"2026-03-09T21:21:21.489120","MEAN_MOTION":13.29338023,"ECCENTRICITY":7.928e-5,"INCLINATION":50.0017,"RA_OF_ASC_NODE":231.7623,"ARG_OF_PERICENTER":168.7987,"MEAN_ANOMALY":191.2903,"EPHEMERIS_TYPE":0,"CLASSIFICATION_TYPE":"U","NORAD_CAT_ID":62974,"ELEMENT_SET_NO":999,"REV_AT_EPOCH":5265,"BSTAR":0.00011578631,"MEAN_MOTION_DOT":-7.0e-7,"MEAN_MOTION_DDOT":0},{"OBJECT_NAME":"SL-16 DEB","OBJECT_ID":"1996-051F","EPOCH":"2026-03-09T23:15:42.023232","MEAN_MOTION":13.71165588,"ECCENTRICITY":0.0206078,"INCLINATION":70.9868,"RA_OF_ASC_NODE":19.4999,"ARG_OF_PERICENTER":25.0194,"MEAN_ANOMALY":37.5043,"EPHEMERIS_TYPE":0,"CLASSIFICATION_TYPE":"U","NORAD_CAT_ID":24302,"ELEMENT_SET_NO":999,"REV_AT_EPOCH":47599,"BSTAR":0.00025073641,"MEAN_MOTION_DOT":2.19e-6,"MEAN_MOTION_DDOT":0}]
